STARLINK-31952          
1 59867U 24098K   26068.55317527 -.00001121  00000+0 -31222-4 0  9995
2 59867  43.0028 278.9076 0001673 274.5940  85.4720 15.27569151101821
FLOCK 4G-34             
1 62650U 25009AT  26068.73202491  .00013063  00000+0  49338-3 0  9997
2 62650  97.4004 151.0149 0000674 348.8280  11.2944 15.27131464 63729
