[{"OBJECT_NAME":"STARLINK-31952","OBJECT_ID":"2024-098K","EPOCH":"2026-03-09T13:16:34.343328","MEAN_MOTION":15.27569151,"ECCENTRICITY":0.00016731,"INCLINATION":43.0028,"RA_OF_ASC_NODE":278.9076,"ARG_OF_PERICENTER":274.594,"MEAN_ANOMALY":85.472,"EPHEMERIS_TYPE":0,"CLASSIFICATION_TYPE":"U","NORAD_CAT_ID":59867,"ELEMENT_SET_NO":999,"REV_AT_EPOCH":10182,"BSTAR":-3.122164e-5,"MEAN_MOTION_DOT":-1.121e-5,"MEAN_MOTION_DDOT":0},{"OBJECT_NAME":"FLOCK 4G-34","OBJECT_ID":"2025-009AT","EPOCH":"2026-03-09T17:34:06.952224","MEAN_MOTION":15.27131464,"ECCENTRICITY":6.743e-5,"INCLINATION":97.4004,"RA_OF_ASC_NODE":151.0149,"ARG_OF_PERICENTER":348.828,"MEAN_ANOMALY":11.2944,"EPHEMERIS_TYPE":0,"CLASSIFICATION_TYPE":"U","NORAD_CAT_ID":62650,"ELEMENT_SET_NO":999,"REV_AT_EPOCH":6372,"BSTAR":0.00049338357,"MEAN_MOTION_DOT":0.00013063,"MEAN_MOTION_DDOT":0}]
